start=new Date('2021-12-26T00:00:00.000Z').valueOf();
sats=[{"PERIAPSIS":"545.784","GP_ID":"192456778","FILE":"3250974","EPOCH":"2021-12-25T22:09:59.000256","DECAY_DATE":null,"RCS_SIZE":"LARGE","INCLINATION":"53.0557","BSTAR":"-0.00007025000000","OBJECT_ID":"2021-017AL","TLE_LINE1":"1 47756U 21017AL  21359.92359954 -.00001328  00000-0 -70250-4 0  9990","REV_AT_EPOCH":"4645","SEMIMAJOR_AXIS":"6925.379","MEAN_MOTION":"15.06390190","RA_OF_ASC_NODE":"261.4597","ECCENTRICITY":"0.00021070","ARG_OF_PERICENTER":"67.5851","COUNTRY_CODE":"US","OBJECT_NAME":"STARLINK-2174","TLE_LINE2":"2 47756  53.0557 261.4597 0002107  67.5851 292.5361 15.06390190 46453","OBJECT_TYPE":"PAYLOAD","NORAD_CAT_ID":"47756","MEAN_ANOMALY":"292.5361","CENTER_NAME":"EARTH","CLASSIFICATION_TYPE":"U","MEAN_MOTION_DOT":"-0.00001328","SITE":"AFETR","PERIOD":"95.593","MEAN_MOTION_DDOT":"0.0000000000000","MEAN_ELEMENT_THEORY":"SGP4","REF_FRAME":"TEME","EPHEMERIS_TYPE":"0","APOAPSIS":"548.703","ELEMENT_SET_NO":"999","LAUNCH_DATE":"2021-03-04","TIME_SYSTEM":"UTC"},{"INCLINATION":"53.0564","RCS_SIZE":"MEDIUM","BSTAR":"-0.00033127000000","OBJECT_ID":"2021-017AM","PERIAPSIS":"545.916","GP_ID":"192458029","EPOCH":"2021-12-25T21:48:44.459424","DECAY_DATE":null,"FILE":"3250974","SEMIMAJOR_AXIS":"6925.387","RA_OF_ASC_NODE":"261.5265","MEAN_MOTION":"15.06387359","ECCENTRICITY":"0.00019290","ARG_OF_PERICENTER":"50.1914","TLE_LINE1":"1 47757U 21017AM  21359.90884791 -.00005211  00000-0 -33127-3 0  9997","REV_AT_EPOCH":"4639","SITE":"AFETR","MEAN_MOTION_DDOT":"0.0000000000000","PERIOD":"95.593","COUNTRY_CODE":"US","OBJECT_NAME":"STARLINK-2175","OBJECT_TYPE":"PAYLOAD","TLE_LINE2":"2 47757  53.0564 261.5265 0001929  50.1914 309.9245 15.06387359 46394","CLASSIFICATION_TYPE":"U","MEAN_ANOMALY":"309.9245","NORAD_CAT_ID":"47757","CENTER_NAME":"EARTH","MEAN_MOTION_DOT":"-0.00005211","LAUNCH_DATE":"2021-03-04","TIME_SYSTEM":"UTC","MEAN_ELEMENT_THEORY":"SGP4","REF_FRAME":"TEME","EPHEMERIS_TYPE":"0","APOAPSIS":"548.588","ELEMENT_SET_NO":"999"},{"OBJECT_ID":"2021-017AN","BSTAR":"0.00243050000000","INCLINATION":"53.0550","RCS_SIZE":"LARGE","EPOCH":"2021-12-25T22:34:50.724768","DECAY_DATE":null,"FILE":"3250974","GP_ID":"192457778","PERIAPSIS":"516.467","ARG_OF_PERICENTER":"59.3490","ECCENTRICITY":"0.00017920","SEMIMAJOR_AXIS":"6895.838","RA_OF_ASC_NODE":"260.2798","MEAN_MOTION":"15.16080288","REV_AT_EPOCH":"4647","TLE_LINE1":"1 47758U 21017AN  21359.94086487  .00047353  00000-0  24305-2 0  9996","MEAN_MOTION_DDOT":"0.0000000000000","PERIOD":"94.982","SITE":"AFETR","MEAN_MOTION_DOT":"0.00047353","CLASSIFICATION_TYPE":"U","NORAD_CAT_ID":"47758","CENTER_NAME":"EARTH","MEAN_ANOMALY":"300.7680","OBJECT_TYPE":"PAYLOAD","TLE_LINE2":"2 47758  53.0550 260.2798 0001792  59.3490 300.7680 15.16080288 46478","COUNTRY_CODE":"US","OBJECT_NAME":"STARLINK-2176","TIME_SYSTEM":"UTC","LAUNCH_DATE":"2021-03-04","ELEMENT_SET_NO":"999","APOAPSIS":"518.939","EPHEMERIS_TYPE":"0","REF_FRAME":"TEME","MEAN_ELEMENT_THEORY":"SGP4"},{"REV_AT_EPOCH":"4699","TLE_LINE1":"1 47759U 21017AP  21359.90710840  .00203853  00000-0  23176-2 0  9994","MEAN_MOTION":"15.61133885","SEMIMAJOR_AXIS":"6762.518","RA_OF_ASC_NODE":"222.1679","ARG_OF_PERICENTER":"64.7341","ECCENTRICITY":"0.00012780","GP_ID":"192456528","PERIAPSIS":"383.518","FILE":"3250974","EPOCH":"2021-12-25T21:46:14.165760","DECAY_DATE":null,"RCS_SIZE":"LARGE","INCLINATION":"53.0528","OBJECT_ID":"2021-017AP","BSTAR":"0.00231760000000","REF_FRAME":"TEME","MEAN_ELEMENT_THEORY":"SGP4","ELEMENT_SET_NO":"999","EPHEMERIS_TYPE":"0","APOAPSIS":"385.247","TIME_SYSTEM":"UTC","LAUNCH_DATE":"2021-03-04","TLE_LINE2":"2 47759  53.0528 222.1679 0001278  64.7341 295.3804 15.61133885 46999","OBJECT_TYPE":"PAYLOAD","COUNTRY_CODE":"US","OBJECT_NAME":"STARLINK-2177","MEAN_MOTION_DOT":"0.00203853","NORAD_CAT_ID":"47759","MEAN_ANOMALY":"295.3804","CENTER_NAME":"EARTH","CLASSIFICATION_TYPE":"U","PERIOD":"92.241","MEAN_MOTION_DDOT":"0.0000000000000","SITE":"AFETR"},{"OBJECT_ID":"2021-017AQ","BSTAR":"0.00003428500000","INCLINATION":"53.0576","RCS_SIZE":"LARGE","EPOCH":"2021-12-25T22:35:11.131584","DECAY_DATE":null,"FILE":"3250974","GP_ID":"192457278","PERIAPSIS":"545.959","ARG_OF_PERICENTER":"55.7461","ECCENTRICITY":"0.00018280","SEMIMAJOR_AXIS":"6925.360","RA_OF_ASC_NODE":"271.3594","MEAN_MOTION":"15.06396270","REV_AT_EPOCH":"4629","TLE_LINE1":"1 47760U 21017AQ  21359.94110106  .00000229  00000-0  34285-4 0  9996","MEAN_MOTION_DDOT":"0.0000000000000","PERIOD":"95.592","SITE":"AFETR","MEAN_MOTION_DOT":"0.00000229","CLASSIFICATION_TYPE":"U","NORAD_CAT_ID":"47760","CENTER_NAME":"EARTH","MEAN_ANOMALY":"304.3701","OBJECT_TYPE":"PAYLOAD","TLE_LINE2":"2 47760  53.0576 271.3594 0001828  55.7461 304.3701 15.06396270 46298","COUNTRY_CODE":"US","OBJECT_NAME":"STARLINK-2178","TIME_SYSTEM":"UTC","LAUNCH_DATE":"2021-03-04","ELEMENT_SET_NO":"999","APOAPSIS":"548.491","EPHEMERIS_TYPE":"0","REF_FRAME":"TEME","MEAN_ELEMENT_THEORY":"SGP4"},{"MEAN_ELEMENT_THEORY":"SGP4","REF_FRAME":"TEME","EPHEMERIS_TYPE":"0","APOAPSIS":"548.494","ELEMENT_SET_NO":"999","LAUNCH_DATE":"2021-03-04","TIME_SYSTEM":"UTC","OBJECT_NAME":"STARLINK-2179","COUNTRY_CODE":"US","TLE_LINE2":"2 47761  53.0534 261.5404 0001777  57.6142 302.5018 15.06383886 46407","OBJECT_TYPE":"PAYLOAD","NORAD_CAT_ID":"47761","MEAN_ANOMALY":"302.5018","CENTER_NAME":"EARTH","CLASSIFICATION_TYPE":"U","MEAN_MOTION_DOT":"-0.00004597","SITE":"AFETR","PERIOD":"95.593","MEAN_MOTION_DDOT":"0.0000000000000","TLE_LINE1":"1 47761U 21017AR  21359.90515908 -.00004597  00000-0 -29002-3 0  9996","REV_AT_EPOCH":"4640","SEMIMAJOR_AXIS":"6925.398","RA_OF_ASC_NODE":"261.5404","MEAN_MOTION":"15.06383886","ECCENTRICITY":"0.00017770","ARG_OF_PERICENTER":"57.6142","PERIAPSIS":"546.032","GP_ID":"192457530","FILE":"3250974","EPOCH":"2021-12-25T21:43:25.744512","DECAY_DATE":null,"RCS_SIZE":"LARGE","INCLINATION":"53.0534","BSTAR":"-0.00029002000000","OBJECT_ID":"2021-017AR"},{"RCS_SIZE":"LARGE","INCLINATION":"53.0536","BSTAR":"0.00033706000000","OBJECT_ID":"2021-017AS","PERIAPSIS":"545.787","GP_ID":"192458278","FILE":"3250974","DECAY_DATE":null,"EPOCH":"2021-12-25T22:19:53.565312","SEMIMAJOR_AXIS":"6925.327","RA_OF_ASC_NODE":"276.4329","MEAN_MOTION":"15.06407062","ECCENTRICITY":"0.00020280","ARG_OF_PERICENTER":"55.5091","TLE_LINE1":"1 47762U 21017AS  21359.93048108  .00004743  00000-0  33706-3 0  9990","REV_AT_EPOCH":"4621","SITE":"AFETR","PERIOD":"95.592","MEAN_MOTION_DDOT":"0.0000000000000","COUNTRY_CODE":"US","OBJECT_NAME":"STARLINK-2180","TLE_LINE2":"2 47762  53.0536 276.4329 0002028  55.5091 304.6090 15.06407062 46216","OBJECT_TYPE":"PAYLOAD","NORAD_CAT_ID":"47762","MEAN_ANOMALY":"304.6090","CENTER_NAME":"EARTH","CLASSIFICATION_TYPE":"U","MEAN_MOTION_DOT":"0.00004743","LAUNCH_DATE":"2021-03-04","TIME_SYSTEM":"UTC","MEAN_ELEMENT_THEORY":"SGP4","REF_FRAME":"TEME","APOAPSIS":"548.596","EPHEMERIS_TYPE":"0","ELEMENT_SET_NO":"999"},{"REF_FRAME":"TEME","MEAN_ELEMENT_THEORY":"SGP4","ELEMENT_SET_NO":"999","APOAPSIS":"548.485","EPHEMERIS_TYPE":"0","TIME_SYSTEM":"UTC","LAUNCH_DATE":"2021-03-04","OBJECT_TYPE":"PAYLOAD","TLE_LINE2":"2 47763  53.0633 266.3150 0001790  55.8280 304.2879 15.06389702 46337","OBJECT_NAME":"STARLINK-2181","COUNTRY_CODE":"US","MEAN_MOTION_DOT":"-0.00001619","CLASSIFICATION_TYPE":"U","NORAD_CAT_ID":"47763","MEAN_ANOMALY":"304.2879","CENTER_NAME":"EARTH","MEAN_MOTION_DDOT":"0.0000000000000","PERIOD":"95.593","SITE":"AFETR","REV_AT_EPOCH":"4633","TLE_LINE1":"1 47763U 21017AT  21359.94709120 -.00001619  00000-0 -89855-4 0  9998","MEAN_MOTION":"15.06389702","SEMIMAJOR_AXIS":"6925.380","RA_OF_ASC_NODE":"266.3150","ARG_OF_PERICENTER":"55.8280","ECCENTRICITY":"0.00017900","GP_ID":"192457028","PERIAPSIS":"546.005","DECAY_DATE":null,"EPOCH":"2021-12-25T22:43:48.679680","FILE":"3250974","INCLINATION":"53.0633","RCS_SIZE":"LARGE","OBJECT_ID":"2021-017AT","BSTAR":"-0.00008985500000"},{"SITE":"AFETR","MEAN_MOTION_DDOT":"0.0000000000000","PERIOD":"95.593","CLASSIFICATION_TYPE":"U","MEAN_ANOMALY":"311.5481","NORAD_CAT_ID":"47764","CENTER_NAME":"EARTH","MEAN_MOTION_DOT":"0.00001136","OBJECT_NAME":"STARLINK-2182","COUNTRY_CODE":"US","OBJECT_TYPE":"PAYLOAD","TLE_LINE2":"2 47764  53.0541 276.4892 0001883  48.5669 311.5481 15.06382957 46249","LAUNCH_DATE":"2021-03-04","TIME_SYSTEM":"UTC","APOAPSIS":"548.570","EPHEMERIS_TYPE":"0","ELEMENT_SET_NO":"999","MEAN_ELEMENT_THEORY":"SGP4","REF_FRAME":"TEME","BSTAR":"0.00009523200000","OBJECT_ID":"2021-017AU","INCLINATION":"53.0541","RCS_SIZE":"LARGE","DECAY_DATE":null,"EPOCH":"2021-12-25T22:00:01.716192","FILE":"3250974","PERIAPSIS":"545.962","GP_ID":"192456779","ECCENTRICITY":"0.00018830","ARG_OF_PERICENTER":"48.5669","RA_OF_ASC_NODE":"276.4892","SEMIMAJOR_AXIS":"6925.401","MEAN_MOTION":"15.06382957","TLE_LINE1":"1 47764U 21017AU  21359.91668653  .00001136  00000-0  95232-4 0  9999","REV_AT_EPOCH":"4624"},{"INCLINATION":"53.0546","RCS_SIZE":"LARGE","BSTAR":"0.00017235000000","OBJECT_ID":"2021-017AV","PERIAPSIS":"540.262","GP_ID":"192458030","DECAY_DATE":null,"EPOCH":"2021-12-25T22:11:39.748704","FILE":"3250974","MEAN_MOTION":"15.08084578","SEMIMAJOR_AXIS":"6920.190","RA_OF_ASC_NODE":"256.1587","ECCENTRICITY":"0.00025920","ARG_OF_PERICENTER":"70.9180","TLE_LINE1":"1 47765U 21017AV  21359.92476561  .00002402  00000-0  17235-3 0  9999","REV_AT_EPOCH":"4648","SITE":"AFETR","MEAN_MOTION_DDOT":"0.0000000000000","PERIOD":"95.485","COUNTRY_CODE":"US","OBJECT_NAME":"STARLINK-2183","OBJECT_TYPE":"PAYLOAD","TLE_LINE2":"2 47765  53.0546 256.1587 0002592  70.9180 289.2091 15.08084578 46480","CLASSIFICATION_TYPE":"U","NORAD_CAT_ID":"47765","MEAN_ANOMALY":"289.2091","CENTER_NAME":"EARTH","MEAN_MOTION_DOT":"0.00002402","LAUNCH_DATE":"2021-03-04","TIME_SYSTEM":"UTC","MEAN_ELEMENT_THEORY":"SGP4","REF_FRAME":"TEME","APOAPSIS":"543.849","EPHEMERIS_TYPE":"0","ELEMENT_SET_NO":"999"}];
